CCSDS_OMM_VERS = 2.0
CREATION_DATE  = 
ORIGINATOR     = 

OBJECT_NAME    = COSMOS 1867
OBJECT_ID      = 1987-060A
CENTER_NAME    = EARTH
REF_FRAME      = TEME
TIME_SYSTEM    = UTC
MEAN_ELEMENT_THEORY = SGP/SGP4

EPOCH          = 2026-03-19T22:05:31.011648
MEAN_MOTION    = 14.31504556
ECCENTRICITY   = .00146504
INCLINATION    = 65.0095
RA_OF_ASC_NODE = 278.0532
ARG_OF_PERICENTER = 279.2791
MEAN_ANOMALY   = 80.6637

EPHEMERIS_TYPE = 0
CLASSIFICATION_TYPE = U
NORAD_CAT_ID   = 18187
ELEMENT_SET_NO = 999
REV_AT_EPOCH   = 2140
BSTAR          = .22986695E-4
MEAN_MOTION_DOT = -.39E-6
MEAN_MOTION_DDOT = 0

CCSDS_OMM_VERS = 2.0
CREATION_DATE  = 
ORIGINATOR     = 

OBJECT_NAME    = SL-14 R/B
OBJECT_ID      = 1988-001B
CENTER_NAME    = EARTH
REF_FRAME      = TEME
TIME_SYSTEM    = UTC
MEAN_ELEMENT_THEORY = SGP/SGP4

EPOCH          = 2026-03-19T20:15:42.107040
MEAN_MOTION    = 14.85539201
ECCENTRICITY   = .00175462
INCLINATION    = 82.5160
RA_OF_ASC_NODE = 185.8121
ARG_OF_PERICENTER = 200.3424
MEAN_ANOMALY   = 159.7096

EPHEMERIS_TYPE = 0
CLASSIFICATION_TYPE = U
NORAD_CAT_ID   = 18749
ELEMENT_SET_NO = 999
REV_AT_EPOCH   = 4353
BSTAR          = .51786918E-4
MEAN_MOTION_DOT = .473E-5
MEAN_MOTION_DDOT = 0

CCSDS_OMM_VERS = 2.0
CREATION_DATE  = 
ORIGINATOR     = 

OBJECT_NAME    = COSMOS 1933
OBJECT_ID      = 1988-020A
CENTER_NAME    = EARTH
REF_FRAME      = TEME
TIME_SYSTEM    = UTC
MEAN_ELEMENT_THEORY = SGP/SGP4

EPOCH          = 2026-03-19T22:35:26.681856
MEAN_MOTION    = 15.18074846
ECCENTRICITY   = .00046933
INCLINATION    = 82.5105
RA_OF_ASC_NODE = 240.7660
ARG_OF_PERICENTER = 148.8684
MEAN_ANOMALY   = 211.2829

EPHEMERIS_TYPE = 0
CLASSIFICATION_TYPE = U
NORAD_CAT_ID   = 18958
ELEMENT_SET_NO = 999
REV_AT_EPOCH   = 5178
BSTAR          = .19268796E-3
MEAN_MOTION_DOT = .3956E-4
MEAN_MOTION_DDOT = 0

CCSDS_OMM_VERS = 2.0
CREATION_DATE  = 
ORIGINATOR     = 

OBJECT_NAME    = SL-3 R/B
OBJECT_ID      = 1988-032B
CENTER_NAME    = EARTH
REF_FRAME      = TEME
TIME_SYSTEM    = UTC
MEAN_ELEMENT_THEORY = SGP/SGP4

EPOCH          = 2026-03-19T22:28:46.379424
MEAN_MOTION    = 15.20019611
ECCENTRICITY   = .00253352
INCLINATION    = 97.5205
RA_OF_ASC_NODE = 62.1526
ARG_OF_PERICENTER = 194.3298
MEAN_ANOMALY   = 165.7221

EPHEMERIS_TYPE = 0
CLASSIFICATION_TYPE = U
NORAD_CAT_ID   = 19046
ELEMENT_SET_NO = 999
REV_AT_EPOCH   = 5366
BSTAR          = .20465999E-3
MEAN_MOTION_DOT = .4376E-4
MEAN_MOTION_DDOT = 0

CCSDS_OMM_VERS = 2.0
CREATION_DATE  = 
ORIGINATOR     = 

OBJECT_NAME    = SL-16 R/B
OBJECT_ID      = 1988-039B
CENTER_NAME    = EARTH
REF_FRAME      = TEME
TIME_SYSTEM    = UTC
MEAN_ELEMENT_THEORY = SGP/SGP4

EPOCH          = 2026-03-19T21:58:22.176480
MEAN_MOTION    = 14.19617846
ECCENTRICITY   = .00232684
INCLINATION    = 71.0151
RA_OF_ASC_NODE = 46.9232
ARG_OF_PERICENTER = 319.5789
MEAN_ANOMALY   = 40.3606

EPHEMERIS_TYPE = 0
CLASSIFICATION_TYPE = U
NORAD_CAT_ID   = 19120
ELEMENT_SET_NO = 999
REV_AT_EPOCH   = 95983
BSTAR          = -.20094061E-4
MEAN_MOTION_DOT = -.91E-6
MEAN_MOTION_DDOT = 0

CCSDS_OMM_VERS = 2.0
CREATION_DATE  = 
ORIGINATOR     = 

OBJECT_NAME    = COSMOS 1953
OBJECT_ID      = 1988-050A
CENTER_NAME    = EARTH
REF_FRAME      = TEME
TIME_SYSTEM    = UTC
MEAN_ELEMENT_THEORY = SGP/SGP4

EPOCH          = 2026-03-19T15:23:15.442944
MEAN_MOTION    = 15.28679655
ECCENTRICITY   = .00126779
INCLINATION    = 82.5091
RA_OF_ASC_NODE = 148.2386
ARG_OF_PERICENTER = 91.4280
MEAN_ANOMALY   = 268.8412

EPHEMERIS_TYPE = 0
CLASSIFICATION_TYPE = U
NORAD_CAT_ID   = 19210
ELEMENT_SET_NO = 999
REV_AT_EPOCH   = 3930
BSTAR          = .19350473E-3
MEAN_MOTION_DOT = .544E-4
MEAN_MOTION_DDOT = 0

CCSDS_OMM_VERS = 2.0
CREATION_DATE  = 
ORIGINATOR     = 

OBJECT_NAME    = SL-8 R/B
OBJECT_ID      = 1988-053B
CENTER_NAME    = EARTH
REF_FRAME      = TEME
TIME_SYSTEM    = UTC
MEAN_ELEMENT_THEORY = SGP/SGP4

EPOCH          = 2026-03-19T11:26:32.253216
MEAN_MOTION    = 14.38922187
ECCENTRICITY   = .00215429
INCLINATION    = 74.0450
RA_OF_ASC_NODE = 94.4243
ARG_OF_PERICENTER = 272.4518
MEAN_ANOMALY   = 238.1715

EPHEMERIS_TYPE = 0
CLASSIFICATION_TYPE = U
NORAD_CAT_ID   = 19257
ELEMENT_SET_NO = 999
REV_AT_EPOCH   = 97800
BSTAR          = .10044729E-3
MEAN_MOTION_DOT = .284E-5
MEAN_MOTION_DDOT = 0

CCSDS_OMM_VERS = 2.0
CREATION_DATE  = 
ORIGINATOR     = 

OBJECT_NAME    = COSMOS 1975
OBJECT_ID      = 1988-093A
CENTER_NAME    = EARTH
REF_FRAME      = TEME
TIME_SYSTEM    = UTC
MEAN_ELEMENT_THEORY = SGP/SGP4

EPOCH          = 2026-03-19T11:33:22.586688
MEAN_MOTION    = 15.28194830
ECCENTRICITY   = .00129628
INCLINATION    = 82.5163
RA_OF_ASC_NODE = 107.8529
ARG_OF_PERICENTER = 131.2648
MEAN_ANOMALY   = 228.9710

EPHEMERIS_TYPE = 0
CLASSIFICATION_TYPE = U
NORAD_CAT_ID   = 19573
ELEMENT_SET_NO = 999
REV_AT_EPOCH   = 2090
BSTAR          = .18083961E-3
MEAN_MOTION_DOT = .5013E-4
MEAN_MOTION_DDOT = 0

CCSDS_OMM_VERS = 2.0
CREATION_DATE  = 
ORIGINATOR     = 

OBJECT_NAME    = SL-14 R/B
OBJECT_ID      = 1988-093B
CENTER_NAME    = EARTH
REF_FRAME      = TEME
TIME_SYSTEM    = UTC
MEAN_ELEMENT_THEORY = SGP/SGP4

EPOCH          = 2026-03-19T23:14:11.950368
MEAN_MOTION    = 14.85668651
ECCENTRICITY   = .00209145
INCLINATION    = 82.5326
RA_OF_ASC_NODE = 32.3955
ARG_OF_PERICENTER = 8.6539
MEAN_ANOMALY   = 58.5371

EPHEMERIS_TYPE = 0
CLASSIFICATION_TYPE = U
NORAD_CAT_ID   = 19574
ELEMENT_SET_NO = 999
REV_AT_EPOCH   = 254
BSTAR          = .55767523E-4
MEAN_MOTION_DOT = .509E-5
MEAN_MOTION_DDOT = 0

CCSDS_OMM_VERS = 2.0
CREATION_DATE  = 
ORIGINATOR     = 

OBJECT_NAME    = SL-16 R/B
OBJECT_ID      = 1988-102B
CENTER_NAME    = EARTH
REF_FRAME      = TEME
TIME_SYSTEM    = UTC
MEAN_ELEMENT_THEORY = SGP/SGP4

EPOCH          = 2026-03-19T12:16:12.704160
MEAN_MOTION    = 14.16155997
ECCENTRICITY   = .00146613
INCLINATION    = 70.9989
RA_OF_ASC_NODE = 130.8325
ARG_OF_PERICENTER = 346.2813
MEAN_ANOMALY   = 13.7909

EPHEMERIS_TYPE = 0
CLASSIFICATION_TYPE = U
NORAD_CAT_ID   = 19650
ELEMENT_SET_NO = 999
REV_AT_EPOCH   = 92828
BSTAR          = -.16673314E-4
MEAN_MOTION_DOT = -.81E-6
MEAN_MOTION_DDOT = 0

CCSDS_OMM_VERS = 2.0
CREATION_DATE  = 
ORIGINATOR     = 

OBJECT_NAME    = INTERCOSMOS 24
OBJECT_ID      = 1989-080A
CENTER_NAME    = EARTH
REF_FRAME      = TEME
TIME_SYSTEM    = UTC
MEAN_ELEMENT_THEORY = SGP/SGP4

EPOCH          = 2026-03-19T11:50:00.392640
MEAN_MOTION    = 12.59571500
ECCENTRICITY   = .11866793
INCLINATION    = 82.6016
RA_OF_ASC_NODE = 98.0186
ARG_OF_PERICENTER = 270.0421
MEAN_ANOMALY   = 76.5021

EPHEMERIS_TYPE = 0
CLASSIFICATION_TYPE = U
NORAD_CAT_ID   = 20261
ELEMENT_SET_NO = 999
REV_AT_EPOCH   = 66803
BSTAR          = .14754375E-3
MEAN_MOTION_DOT = .496E-5
MEAN_MOTION_DDOT = 0

CCSDS_OMM_VERS = 2.0
CREATION_DATE  = 
ORIGINATOR     = 

OBJECT_NAME    = SL-14 R/B
OBJECT_ID      = 1989-080C
CENTER_NAME    = EARTH
REF_FRAME      = TEME
TIME_SYSTEM    = UTC
MEAN_ELEMENT_THEORY = SGP/SGP4

EPOCH          = 2026-03-19T17:14:21.323904
MEAN_MOTION    = 12.50504355
ECCENTRICITY   = .12307962
INCLINATION    = 82.5966
RA_OF_ASC_NODE = 166.7508
ARG_OF_PERICENTER = 161.8365
MEAN_ANOMALY   = 203.1088

EPHEMERIS_TYPE = 0
CLASSIFICATION_TYPE = U
NORAD_CAT_ID   = 20262
ELEMENT_SET_NO = 999
REV_AT_EPOCH   = 66140
BSTAR          = .11192993E-3
MEAN_MOTION_DOT = .395E-5
MEAN_MOTION_DDOT = 0

CCSDS_OMM_VERS = 2.0
CREATION_DATE  = 
ORIGINATOR     = 

OBJECT_NAME    = DELTA 1 R/B
OBJECT_ID      = 1989-089B
CENTER_NAME    = EARTH
REF_FRAME      = TEME
TIME_SYSTEM    = UTC
MEAN_ELEMENT_THEORY = SGP/SGP4

EPOCH          = 2026-03-19T13:16:48.324576
MEAN_MOTION    = 14.50671207
ECCENTRICITY   = .00707203
INCLINATION    = 97.0698
RA_OF_ASC_NODE = 284.4227
ARG_OF_PERICENTER = 91.4144
MEAN_ANOMALY   = 269.5157

EPHEMERIS_TYPE = 0
CLASSIFICATION_TYPE = U
NORAD_CAT_ID   = 20323
ELEMENT_SET_NO = 999
REV_AT_EPOCH   = 89716
BSTAR          = .84601395E-4
MEAN_MOTION_DOT = .308E-5
MEAN_MOTION_DDOT = 0

CCSDS_OMM_VERS = 2.0
CREATION_DATE  = 
ORIGINATOR     = 

OBJECT_NAME    = ARIANE 40 R/B
OBJECT_ID      = 1990-005H
CENTER_NAME    = EARTH
REF_FRAME      = TEME
TIME_SYSTEM    = UTC
MEAN_ELEMENT_THEORY = SGP/SGP4

EPOCH          = 2026-03-19T18:01:03.694080
MEAN_MOTION    = 14.39876682
ECCENTRICITY   = .00104867
INCLINATION    = 98.3061
RA_OF_ASC_NODE = 139.1114
ARG_OF_PERICENTER = 168.0873
MEAN_ANOMALY   = 192.0565

EPHEMERIS_TYPE = 0
CLASSIFICATION_TYPE = U
NORAD_CAT_ID   = 20443
ELEMENT_SET_NO = 999
REV_AT_EPOCH   = 89425
BSTAR          = .78679859E-4
MEAN_MOTION_DOT = .205E-5
MEAN_MOTION_DDOT = 0

CCSDS_OMM_VERS = 2.0
CREATION_DATE  = 
ORIGINATOR     = 

OBJECT_NAME    = DELTA 2 R/B(1)
OBJECT_ID      = 1990-008B
CENTER_NAME    = EARTH
REF_FRAME      = TEME
TIME_SYSTEM    = UTC
MEAN_ELEMENT_THEORY = SGP/SGP4

EPOCH          = 2026-03-19T10:39:22.551264
MEAN_MOTION    = 15.57188262
ECCENTRICITY   = .00818184
INCLINATION    = 35.6025
RA_OF_ASC_NODE = 110.7751
ARG_OF_PERICENTER = 349.0616
MEAN_ANOMALY   = 10.8342

EPHEMERIS_TYPE = 0
CLASSIFICATION_TYPE = U
NORAD_CAT_ID   = 20453
ELEMENT_SET_NO = 999
REV_AT_EPOCH   = 92765
BSTAR          = .53134016E-3
MEAN_MOTION_DOT = .46908E-3
MEAN_MOTION_DDOT = 0

